start=new Date('2022-01-15T00:00:00.000Z').valueOf();
sats=[{"MEAN_ANOMALY":"297.8164","FILE":"3273247","REV_AT_EPOCH":"10676","RA_OF_ASC_NODE":"347.9331","NORAD_CAT_ID":"45207","EPHEMERIS_TYPE":"0","ELEMENT_SET_NO":"999","ECCENTRICITY":"0.00017250","TIME_SYSTEM":"UTC","TLE_LINE1":"1 45207U 20012AF  22014.64015074  .00001186  00000-0  98496-4 0  9995","GP_ID":"193877120","PERIOD":"95.592","OBJECT_NAME":"STARLINK-1210","APOAPSIS":"548.421","OBJECT_TYPE":"PAYLOAD","TLE_LINE2":"2 45207  53.0557 347.9331 0001725  62.3000 297.8164 15.06395714106769","PERIAPSIS":"546.032","SITE":"AFETR","INCLINATION":"53.0557","RCS_SIZE":"LARGE","MEAN_MOTION":"15.06395714","REF_FRAME":"TEME","BSTAR":"0.00009849600000","COUNTRY_CODE":"US","CLASSIFICATION_TYPE":"U","EPOCH":"2022-01-14T15:21:49.023936","MEAN_MOTION_DDOT":"0.0000000000000","SEMIMAJOR_AXIS":"6925.362","OBJECT_ID":"2020-012AF","CENTER_NAME":"EARTH","ARG_OF_PERICENTER":"62.3000","MEAN_MOTION_DOT":"0.00001186","DECAY_DATE":null,"MEAN_ELEMENT_THEORY":"SGP4","LAUNCH_DATE":"2020-02-17"},{"EPHEMERIS_TYPE":"0","NORAD_CAT_ID":"45208","RA_OF_ASC_NODE":"347.8877","MEAN_ANOMALY":"289.1895","FILE":"3273247","REV_AT_EPOCH":"10667","ECCENTRICITY":"0.00017510","ELEMENT_SET_NO":"999","PERIOD":"95.643","TLE_LINE1":"1 45208U 20012AG  22014.64937492  .00002422  00000-0  18525-3 0  9991","GP_ID":"193877371","TIME_SYSTEM":"UTC","OBJECT_TYPE":"PAYLOAD","APOAPSIS":"550.898","OBJECT_NAME":"STARLINK-1211","RCS_SIZE":"LARGE","INCLINATION":"53.0009","SITE":"AFETR","PERIAPSIS":"548.472","TLE_LINE2":"2 45208  53.0009 347.8877 0001751  70.9282 289.1895 15.05594060106671","COUNTRY_CODE":"US","BSTAR":"0.00018525000000","REF_FRAME":"TEME","MEAN_MOTION":"15.05594060","SEMIMAJOR_AXIS":"6927.820","MEAN_MOTION_DDOT":"0.0000000000000","CLASSIFICATION_TYPE":"U","EPOCH":"2022-01-14T15:35:05.993088","LAUNCH_DATE":"2020-02-17","DECAY_DATE":null,"MEAN_ELEMENT_THEORY":"SGP4","CENTER_NAME":"EARTH","MEAN_MOTION_DOT":"0.00002422","ARG_OF_PERICENTER":"70.9282","OBJECT_ID":"2020-012AG"},{"MEAN_MOTION_DDOT":"0.0000000000000","SEMIMAJOR_AXIS":"6717.847","CLASSIFICATION_TYPE":"U","EPOCH":"2022-01-14T22:21:35.512128","LAUNCH_DATE":"2020-02-17","DECAY_DATE":null,"MEAN_ELEMENT_THEORY":"SGP4","CENTER_NAME":"EARTH","ARG_OF_PERICENTER":"18.1644","MEAN_MOTION_DOT":"-0.00001615","OBJECT_ID":"2020-012AH","RCS_SIZE":"LARGE","INCLINATION":"53.0514","SITE":"AFETR","PERIAPSIS":"337.757","TLE_LINE2":"2 45209  53.0514 250.9535 0002911  18.1644 341.9479 15.76730904108093","BSTAR":"-0.00000584380000","COUNTRY_CODE":"US","REF_FRAME":"TEME","MEAN_MOTION":"15.76730904","PERIOD":"91.328","TLE_LINE1":"1 45209U 20012AH  22014.93166102 -.00001615  00000-0 -58438-5 0  9990","GP_ID":"193876119","TIME_SYSTEM":"UTC","OBJECT_TYPE":"PAYLOAD","APOAPSIS":"341.668","OBJECT_NAME":"STARLINK-1218","EPHEMERIS_TYPE":"0","RA_OF_ASC_NODE":"250.9535","NORAD_CAT_ID":"45209","FILE":"3273247","MEAN_ANOMALY":"341.9479","REV_AT_EPOCH":"10809","ECCENTRICITY":"0.00029110","ELEMENT_SET_NO":"999"},{"TLE_LINE2":"2 45210  53.0569 347.9332 0001812  70.2215 289.8969 15.06395816106655","PERIAPSIS":"545.972","SITE":"AFETR","RCS_SIZE":"LARGE","INCLINATION":"53.0569","MEAN_MOTION":"15.06395816","REF_FRAME":"TEME","COUNTRY_CODE":"US","BSTAR":"0.00009708600000","CLASSIFICATION_TYPE":"U","EPOCH":"2022-01-14T15:27:07.514208","MEAN_MOTION_DDOT":"0.0000000000000","SEMIMAJOR_AXIS":"6925.361","OBJECT_ID":"2020-012AJ","CENTER_NAME":"EARTH","MEAN_MOTION_DOT":"0.00001165","ARG_OF_PERICENTER":"70.2215","DECAY_DATE":null,"MEAN_ELEMENT_THEORY":"SGP4","LAUNCH_DATE":"2020-02-17","FILE":"3273247","REV_AT_EPOCH":"10665","MEAN_ANOMALY":"289.8969","NORAD_CAT_ID":"45210","RA_OF_ASC_NODE":"347.9332","EPHEMERIS_TYPE":"0","ELEMENT_SET_NO":"999","ECCENTRICITY":"0.00018120","TIME_SYSTEM":"UTC","TLE_LINE1":"1 45210U 20012AJ  22014.64383697  .00001165  00000-0  97086-4 0  9999","GP_ID":"193876369","PERIOD":"95.592","OBJECT_NAME":"STARLINK-1219","APOAPSIS":"548.481","OBJECT_TYPE":"PAYLOAD"},{"PERIOD":"95.592","TIME_SYSTEM":"UTC","TLE_LINE1":"1 45212U 20012AL  22014.61065529  .00001687  00000-0  13212-3 0  9996","GP_ID":"193877620","OBJECT_TYPE":"PAYLOAD","APOAPSIS":"548.460","OBJECT_NAME":"STARLINK-1231","EPHEMERIS_TYPE":"0","FILE":"3273247","REV_AT_EPOCH":"10671","MEAN_ANOMALY":"292.3473","RA_OF_ASC_NODE":"348.0695","NORAD_CAT_ID":"45212","ECCENTRICITY":"0.00018070","ELEMENT_SET_NO":"999","CLASSIFICATION_TYPE":"U","EPOCH":"2022-01-14T14:39:20.617056","SEMIMAJOR_AXIS":"6925.344","MEAN_MOTION_DDOT":"0.0000000000000","DECAY_DATE":null,"MEAN_ELEMENT_THEORY":"SGP4","LAUNCH_DATE":"2020-02-17","OBJECT_ID":"2020-012AL","CENTER_NAME":"EARTH","ARG_OF_PERICENTER":"67.7708","MEAN_MOTION_DOT":"0.00001687","SITE":"AFETR","RCS_SIZE":"LARGE","INCLINATION":"53.0537","TLE_LINE2":"2 45212  53.0537 348.0695 0001807  67.7708 292.3473 15.06401567106715","PERIAPSIS":"545.957","COUNTRY_CODE":"US","BSTAR":"0.00013212000000","MEAN_MOTION":"15.06401567","REF_FRAME":"TEME"},{"ELEMENT_SET_NO":"999","ECCENTRICITY":"0.00018360","RA_OF_ASC_NODE":"346.4594","NORAD_CAT_ID":"45213","FILE":"3273247","MEAN_ANOMALY":"299.6332","REV_AT_EPOCH":"10681","EPHEMERIS_TYPE":"0","OBJECT_NAME":"STARLINK-1232","APOAPSIS":"521.180","OBJECT_TYPE":"PAYLOAD","GP_ID":"193877871","TLE_LINE1":"1 45213U 20012AM  22014.92510443  .00661301  00000-0  32434-1 0  9991","TIME_SYSTEM":"UTC","PERIOD":"95.027","REF_FRAME":"TEME","MEAN_MOTION":"15.15351683","COUNTRY_CODE":"US","BSTAR":"0.03243400000000","PERIAPSIS":"518.647","TLE_LINE2":"2 45213  53.0560 346.4594 0001836  60.4843 299.6332 15.15351683106812","INCLINATION":"53.0560","RCS_SIZE":"LARGE","SITE":"AFETR","CENTER_NAME":"EARTH","ARG_OF_PERICENTER":"60.4843","MEAN_MOTION_DOT":"0.00661301","OBJECT_ID":"2020-012AM","LAUNCH_DATE":"2020-02-17","DECAY_DATE":null,"MEAN_ELEMENT_THEORY":"SGP4","MEAN_MOTION_DDOT":"0.0000000000000","SEMIMAJOR_AXIS":"6898.048","CLASSIFICATION_TYPE":"U","EPOCH":"2022-01-14T22:12:09.022752"},{"LAUNCH_DATE":"2020-02-17","DECAY_DATE":null,"MEAN_ELEMENT_THEORY":"SGP4","CENTER_NAME":"EARTH","MEAN_MOTION_DOT":"0.00003203","ARG_OF_PERICENTER":"61.6257","OBJECT_ID":"2020-012AN","MEAN_MOTION_DDOT":"0.0000000000000","SEMIMAJOR_AXIS":"6925.322","CLASSIFICATION_TYPE":"U","EPOCH":"2022-01-14T15:37:43.608288","COUNTRY_CODE":"US","BSTAR":"0.00023378000000","REF_FRAME":"TEME","MEAN_MOTION":"15.06408634","INCLINATION":"53.0571","RCS_SIZE":"LARGE","SITE":"AFETR","PERIAPSIS":"545.861","TLE_LINE2":"2 45214  53.0571 347.8882 0001915  61.6257 298.4925 15.06408634106768","OBJECT_TYPE":"PAYLOAD","APOAPSIS":"548.513","OBJECT_NAME":"STARLINK-1233","PERIOD":"95.592","TLE_LINE1":"1 45214U 20012AN  22014.65119917  .00003203  00000-0  23378-3 0  9993","GP_ID":"193876619","TIME_SYSTEM":"UTC","ECCENTRICITY":"0.00019150","ELEMENT_SET_NO":"999","EPHEMERIS_TYPE":"0","NORAD_CAT_ID":"45214","RA_OF_ASC_NODE":"347.8882","REV_AT_EPOCH":"10676","FILE":"3273247","MEAN_ANOMALY":"298.4925"},{"EPHEMERIS_TYPE":"0","NORAD_CAT_ID":"45215","RA_OF_ASC_NODE":"347.9040","FILE":"3273247","MEAN_ANOMALY":"293.9148","REV_AT_EPOCH":"10670","ECCENTRICITY":"0.00015950","ELEMENT_SET_NO":"999","PERIOD":"95.592","GP_ID":"193876869","TLE_LINE1":"1 45215U 20012AP  22014.64751791  .00000709  00000-0  66476-4 0  9990","TIME_SYSTEM":"UTC","OBJECT_TYPE":"PAYLOAD","APOAPSIS":"548.324","OBJECT_NAME":"STARLINK-1245","INCLINATION":"53.0566","RCS_SIZE":"LARGE","SITE":"AFETR","PERIAPSIS":"546.115","TLE_LINE2":"2 45215  53.0566 347.9040 0001595  66.2008 293.9148 15.06397940106707","COUNTRY_CODE":"US","BSTAR":"0.00006647600000","REF_FRAME":"TEME","MEAN_MOTION":"15.06397940","MEAN_MOTION_DDOT":"0.0000000000000","SEMIMAJOR_AXIS":"6925.355","CLASSIFICATION_TYPE":"U","EPOCH":"2022-01-14T15:32:25.547424","LAUNCH_DATE":"2020-02-17","DECAY_DATE":null,"MEAN_ELEMENT_THEORY":"SGP4","CENTER_NAME":"EARTH","MEAN_MOTION_DOT":"0.00000709","ARG_OF_PERICENTER":"66.2008","OBJECT_ID":"2020-012AP"},{"BSTAR":"0.00008991100000","COUNTRY_CODE":"US","REF_FRAME":"TEME","MEAN_MOTION":"15.06407775","INCLINATION":"53.0561","RCS_SIZE":"LARGE","SITE":"AFETR","PERIAPSIS":"546.018","TLE_LINE2":"2 45217  53.0561 348.0253 0001692  64.2832 295.8332 15.06407775106763","LAUNCH_DATE":"2020-02-17","DECAY_DATE":null,"MEAN_ELEMENT_THEORY":"SGP4","CENTER_NAME":"EARTH","MEAN_MOTION_DOT":"0.00001058","ARG_OF_PERICENTER":"64.2832","OBJECT_ID":"2020-012AR","MEAN_MOTION_DDOT":"0.0000000000000","SEMIMAJOR_AXIS":"6925.325","CLASSIFICATION_TYPE":"U","EPOCH":"2022-01-14T14:55:15.404448","ECCENTRICITY":"0.00016920","ELEMENT_SET_NO":"999","EPHEMERIS_TYPE":"0","NORAD_CAT_ID":"45217","RA_OF_ASC_NODE":"348.0253","REV_AT_EPOCH":"10676","FILE":"3273247","MEAN_ANOMALY":"295.8332","OBJECT_TYPE":"PAYLOAD","APOAPSIS":"548.361","OBJECT_NAME":"STARLINK-1271","PERIOD":"95.592","GP_ID":"193877121","TLE_LINE1":"1 45217U 20012AR  22014.62170607  .00001058  00000-0  89911-4 0  9998","TIME_SYSTEM":"UTC"},{"ECCENTRICITY":"0.00018920","ELEMENT_SET_NO":"999","EPHEMERIS_TYPE":"0","RA_OF_ASC_NODE":"328.3301","NORAD_CAT_ID":"45219","FILE":"3272874","REV_AT_EPOCH":"10704","MEAN_ANOMALY":"290.3198","APOAPSIS":"548.503","OBJECT_TYPE":"PAYLOAD","OBJECT_NAME":"STARLINK-1187","PERIOD":"95.592","GP_ID":"193844255","TLE_LINE1":"1 45219U 20012AT  22014.55352669  .00003990  00000-0  28654-3 0  9995","TIME_SYSTEM":"UTC","BSTAR":"0.00028654000000","COUNTRY_CODE":"US","REF_FRAME":"TEME","MEAN_MOTION":"15.06406640","RCS_SIZE":"LARGE","INCLINATION":"53.0553","SITE":"AFETR","PERIAPSIS":"545.883","TLE_LINE2":"2 45219  53.0553 328.3301 0001892  69.7994 290.3198 15.06406640107044","LAUNCH_DATE":"2020-02-17","MEAN_ELEMENT_THEORY":"SGP4","DECAY_DATE":null,"MEAN_MOTION_DOT":"0.00003990","ARG_OF_PERICENTER":"69.7994","CENTER_NAME":"EARTH","OBJECT_ID":"2020-012AT","MEAN_MOTION_DDOT":"0.0000000000000","SEMIMAJOR_AXIS":"6925.328","EPOCH":"2022-01-14T13:17:04.706016","CLASSIFICATION_TYPE":"U"}];
